1 49044U 21066A   25136.86274537  .00007420  00000+0  13996-3 0  9998
2 49044  51.6352 102.2524 0002289 117.8022 242.3199 15.49562124212894